H1 CPF  1  DLR 2021 01 14 10  5142 technosat            
H2  1704205 6203    42829 2021 01 14 00 00 00 2021 01 21 00 00 00    60 1 1  0 0 0
H9
10 0 59229  43200.000000  0      -5189394.201       4659518.065        277457.110
10 0 59229  43260.000000  0      -5131634.357       4728074.312       -171967.674
10 0 59229  43320.000000  0      -5051784.729       4776145.830       -620664.027
10 0 59229  43380.000000  0      -4950362.846       4803340.005      -1066731.288
10 0 59229  43440.000000  0      -4827980.727       4809357.789      -1508280.272
10 0 59229  43500.000000  0      -4685341.371       4793995.708      -1943441.416
10 0 59229  43560.000000  0      -4523234.885       4757147.413      -2370372.919
10 0 59229  43620.000000  0      -4342534.126       4698804.750      -2787268.702
10 0 59229  43680.000000  0      -4144189.976       4619058.363      -3192366.168
10 0 59229  43740.000000  0      -3929226.266       4518097.786      -3583953.721
10 0 59229  43800.000000  0      -3698734.422       4396211.084      -3960377.970
10 0 59229  43860.000000  0      -3453867.847       4253784.049      -4320050.691
10 0 59229  43920.000000  0      -3195836.026       4091298.857      -4661455.427
10 0 59229  43980.000000  0      -2925898.537       3909332.377      -4983153.678
10 0 59229  44040.000000  0      -2645358.896       3708554.061      -5283790.859
10 0 59229  44100.000000  0      -2355558.202       3489723.382      -5562101.868
10 0 59229  44160.000000  0      -2057868.673       3253686.825      -5816916.255
10 0 59229  44220.000000  0      -1753687.104       3001374.474      -6047162.948
10 0 59229  44280.000000  0      -1444428.287       2733796.201      -6251874.531
10 0 59229  44340.000000  0      -1131518.432       2452037.508      -6430191.039
10 0 59229  44400.000000  0       -816388.655       2157255.100      -6581363.301
10 0 59229  44460.000000  0       -500468.481       1850672.145      -6704755.936
10 0 59229  44520.000000  0       -185179.424       1533573.128      -6799849.796
10 0 59229  44580.000000  0        128071.238       1207298.534      -6866243.982
10 0 59229  44640.000000  0        437896.666        873239.278      -6903657.521
10 0 59229  44700.000000  0        742936.580        532830.855      -6911930.554
10 0 59229  44760.000000  0       1041863.209        187547.197      -6891024.979
10 0 59229  44820.000000  0       1333386.992       -161105.649      -6841024.587
10 0 59229  44880.000000  0       1616262.071       -511595.974      -6762134.749
10 0 59229  44940.000000  0       1889291.526       -862372.998      -6654681.713
10 0 59229  45000.000000  0       2151332.454      -1211873.662      -6519111.480
10 0 59229  45060.000000  0       2401300.807      -1558529.516      -6355988.091
10 0 59229  45120.000000  0       2638175.863      -1900773.628      -6165991.500
10 0 59229  45180.000000  0       2861004.458      -2237047.604      -5949915.115
10 0 59229  45240.000000  0       3068904.978      -2565808.755      -5708662.856
10 0 59229  45300.000000  0       3261071.042      -2885537.312      -5443245.628
10 0 59229  45360.000000  0       3436774.784      -3194743.572      -5154777.249
10 0 59229  45420.000000  0       3595369.698      -3491974.912      -4844469.935
10 0 59229  45480.000000  0       3736293.116      -3775822.681      -4513629.429
10 0 59229  45540.000000  0       3859068.326      -4044928.994      -4163649.755
10 0 59229  45600.000000  0       3963306.329      -4297993.412      -3796007.546
10 0 59229  45660.000000  0       4048707.171      -4533779.426      -3412255.938
10 0 59229  45720.000000  0       4115060.884      -4751120.698      -3014018.089
10 0 59229  45780.000000  0       4162247.992      -4948927.069      -2602980.330
10 0 59229  45840.000000  0       4190239.512      -5126190.281      -2180884.931
10 0 59229  45900.000000  0       4199096.444      -5281989.257      -1749522.565
10 0 59229  45960.000000  0       4188968.913      -5415494.984      -1310724.596
10 0 59229  46020.000000  0       4160094.866      -5525975.048       -866355.072
10 0 59229  46080.000000  0       4112798.263      -5612797.668       -418302.535
10 0 59229  46140.000000  0       4047486.834      -5675435.237         31528.272
10 0 59229  46200.000000  0       3964649.436      -5713467.398        481224.750
10 0 59229  46260.000000  0       3864853.033      -5726583.596        928874.899
10 0 59229  46320.000000  0       3748739.306      -5714585.061       1372575.790
10 0 59229  46380.000000  0       3617020.820      -5677386.190       1810442.022
10 0 59229  46440.000000  0       3470476.820      -5615015.340       2240613.940
10 0 59229  46500.000000  0       3309948.784      -5527615.143       2661265.706
10 0 59229  46560.000000  0       3136335.698      -5415442.291       3070613.244
10 0 59229  46620.000000  0       2950589.072      -5278866.684       3466921.983
10 0 59229  46680.000000  0       2753707.769      -5118370.033       3848514.248
10 0 59229  46740.000000  0       2546732.671      -4934543.994       4213776.421
10 0 59229  46800.000000  0       2330741.146      -4728087.736       4561165.815
10 0 59229  46860.000000  0       2106841.387      -4499804.963       4889217.080
10 0 59229  46920.000000  0       1876166.765      -4250600.538       5196548.252
10 0 59229  46980.000000  0       1639870.078      -3981476.627       5481866.511
10 0 59229  47040.000000  0       1399117.720      -3693528.333       5743973.439
10 0 59229  47100.000000  0       1155083.895      -3387938.951       5981769.782
10 0 59229  47160.000000  0        908944.890      -3065974.885       6194259.745
10 0 59229  47220.000000  0        661873.447      -2728980.236       6380554.867
10 0 59229  47280.000000  0        415033.205      -2378371.026       6539877.457
10 0 59229  47340.000000  0        169573.299      -2015629.153       6671563.499
10 0 59229  47400.000000  0        -73376.886      -1642296.144       6775065.192
10 0 59229  47460.000000  0       -312712.848      -1259966.564       6849953.095
10 0 59229  47520.000000  0       -547359.897       -870281.151       6895917.690
10 0 59229  47580.000000  0       -776277.884       -474919.826       6912770.503
10 0 59229  47640.000000  0       -998465.753        -75594.502       6900444.762
10 0 59229  47700.000000  0      -1212965.857        325958.257       6858995.579
10 0 59229  47760.000000  0      -1418868.003        727984.701       6788599.661
10 0 59229  47820.000000  0      -1615313.248       1128721.448       6689554.570
10 0 59229  47880.000000  0      -1801497.454       1526403.100       6562277.544
10 0 59229  47940.000000  0      -1976674.557       1919269.938       6407303.830
10 0 59229  48000.000000  0      -2140159.524       2305575.613       6225284.587
10 0 59229  48060.000000  0      -2291331.031       2683594.878       6016984.342
10 0 59229  48120.000000  0      -2429633.795       3051631.250       5783277.940
10 0 59229  48180.000000  0      -2554580.631       3408024.586       5525147.171
10 0 59229  48240.000000  0      -2665754.219       3751158.659       5243676.904
10 0 59229  48300.000000  0      -2762808.497       4079468.563       4940050.726
10 0 59229  48360.000000  0      -2845469.721       4391447.965       4615546.196
10 0 59229  48420.000000  0      -2913537.153       4685656.165       4271529.666
10 0 59229  48480.000000  0      -2966883.416       4960724.935       3909450.701
10 0 59229  48540.000000  0      -3005454.477       5215365.078       3530836.071
10 0 59229  48600.000000  0      -3029269.249       5448372.656       3137283.396
10 0 59229  48660.000000  0      -3038418.849       5658634.856       2730454.464
10 0 59229  48720.000000  0      -3033065.515       5845135.502       2312068.247
10 0 59229  48780.000000  0      -3013441.167       6006960.142       1883893.609
10 0 59229  48840.000000  0      -2979845.582       6143300.700       1447741.798
10 0 59229  48900.000000  0      -2932644.250       6253459.681       1005458.704
10 0 59229  48960.000000  0      -2872265.907       6336853.864        558916.906
10 0 59229  49020.000000  0      -2799199.746       6393017.457        110007.575
10 0 59229  49080.000000  0      -2713992.350       6421604.701       -339367.717
10 0 59229  49140.000000  0      -2617244.363       6422391.945       -787305.299
10 0 59229  49200.000000  0      -2509606.850       6395279.076      -1231907.770
10 0 59229  49260.000000  0      -2391777.384       6340290.286      -1671292.385
10 0 59229  49320.000000  0      -2264495.861       6257574.098      -2103599.214
10 0 59229  49380.000000  0      -2128540.197       6147402.925      -2526999.065
10 0 59229  49440.000000  0      -1984721.880       6010172.081      -2939701.293
10 0 59229  49500.000000  0      -1833881.404       5846398.250      -3339961.421
10 0 59229  49560.000000  0      -1676883.615       5656717.357      -3726088.606
10 0 59229  49620.000000  0      -1514612.965       5441881.823      -4096452.798
10 0 59229  49680.000000  0      -1347968.717       5202757.311      -4449491.544
10 0 59229  49740.000000  0      -1177860.155       4940319.016      -4783716.447
10 0 59229  49800.000000  0      -1005201.802       4655647.497      -5097719.344
10 0 59229  49860.000000  0       -830908.646       4349924.019      -5390178.124
10 0 59229  49920.000000  0       -655891.419       4024425.442      -5659862.162
10 0 59229  49980.000000  0       -481051.944       3680518.672      -5905637.330
10 0 59229  50040.000000  0       -307278.593       3319654.714      -6126470.566
10 0 59229  50100.000000  0       -135441.885       2943362.368      -6321433.958
10 0 59229  50160.000000  0         33609.751       2553241.658      -6489708.343
10 0 59229  50220.000000  0        199054.043       2150957.051      -6630586.534
10 0 59229  50280.000000  0        360098.769       1738230.367      -6743476.167
10 0 59229  50340.000000  0        515985.481       1316833.379      -6827902.055
99
